[{"OBJECT_NAME":"COSMOS 1629","OBJECT_ID":"1985-016A","EPOCH":"2026-03-03T15:11:38.751360","MEAN_MOTION":1.00271975,"ECCENTRICITY":0.00066761,"INCLINATION":9.3203,"RA_OF_ASC_NODE":315.1719,"ARG_OF_PERICENTER":272.2338,"MEAN_ANOMALY":345.5498,"EPHEMERIS_TYPE":0,"CLASSIFICATION_TYPE":"U","NORAD_CAT_ID":15574,"ELEMENT_SET_NO":999,"REV_AT_EPOCH":14939,"BSTAR":0,"MEAN_MOTION_DOT":4.7e-7,"MEAN_MOTION_DDOT":0},{"OBJECT_NAME":"GSTAR 1","OBJECT_ID":"1985-035A","EPOCH":"2026-03-03T08:26:22.382880","MEAN_MOTION":1.00272616,"ECCENTRICITY":0.00025217,"INCLINATION":14.3617,"RA_OF_ASC_NODE":349.5227,"ARG_OF_PERICENTER":84.8762,"MEAN_ANOMALY":108.2353,"EPHEMERIS_TYPE":0,"CLASSIFICATION_TYPE":"U","NORAD_CAT_ID":15677,"ELEMENT_SET_NO":999,"REV_AT_EPOCH":12414,"BSTAR":0,"MEAN_MOTION_DOT":-1.22e-6,"MEAN_MOTION_DDOT":0},{"OBJECT_NAME":"TELECOM 1B","OBJECT_ID":"1985-035B","EPOCH":"2026-03-04T03:24:33.488928","MEAN_MOTION":1.00373436,"ECCENTRICITY":0.000473,"INCLINATION":10.3069,"RA_OF_ASC_NODE":321.5857,"ARG_OF_PERICENTER":344.0949,"MEAN_ANOMALY":191.8509,"EPHEMERIS_TYPE":0,"CLASSIFICATION_TYPE":"U","NORAD_CAT_ID":15678,"ELEMENT_SET_NO":999,"REV_AT_EPOCH":13596,"BSTAR":0,"MEAN_MOTION_DOT":-2.8e-6,"MEAN_MOTION_DDOT":0},{"OBJECT_NAME":"ARABSAT-1B","OBJECT_ID":"1985-048C","EPOCH":"2026-03-03T20:30:38.659104","MEAN_MOTION":1.00433237,"ECCENTRICITY":0.001726,"INCLINATION":12.4905,"RA_OF_ASC_NODE":334.8491,"ARG_OF_PERICENTER":13.8714,"MEAN_ANOMALY":171.1005,"EPHEMERIS_TYPE":0,"CLASSIFICATION_TYPE":"U","NORAD_CAT_ID":15825,"ELEMENT_SET_NO":999,"REV_AT_EPOCH":13437,"BSTAR":0,"MEAN_MOTION_DOT":5.8e-7,"MEAN_MOTION_DDOT":0},{"OBJECT_NAME":"TELSTAR 303","OBJECT_ID":"1985-048D","EPOCH":"2026-03-01T12:47:38.257152","MEAN_MOTION":0.99881595,"ECCENTRICITY":0.0004423,"INCLINATION":14.253,"RA_OF_ASC_NODE":347.0848,"ARG_OF_PERICENTER":283.3453,"MEAN_ANOMALY":273.8732,"EPHEMERIS_TYPE":0,"CLASSIFICATION_TYPE":"U","NORAD_CAT_ID":15826,"ELEMENT_SET_NO":999,"REV_AT_EPOCH":4542,"BSTAR":0,"MEAN_MOTION_DOT":3.0e-7,"MEAN_MOTION_DDOT":0},{"OBJECT_NAME":"INTELSAT 511","OBJECT_ID":"1985-055A","EPOCH":"2026-03-03T11:34:10.690752","MEAN_MOTION":1.00104848,"ECCENTRICITY":0.0010736,"INCLINATION":13.2872,"RA_OF_ASC_NODE":339.5119,"ARG_OF_PERICENTER":79.1576,"MEAN_ANOMALY":109.1,"EPHEMERIS_TYPE":0,"CLASSIFICATION_TYPE":"U","NORAD_CAT_ID":15873,"ELEMENT_SET_NO":999,"REV_AT_EPOCH":12345,"BSTAR":0,"MEAN_MOTION_DOT":6.4e-7,"MEAN_MOTION_DDOT":0},{"OBJECT_NAME":"RADUGA 16","OBJECT_ID":"1985-070A","EPOCH":"2026-03-03T09:50:21.833952","MEAN_MOTION":1.00256822,"ECCENTRICITY":0.0002918,"INCLINATION":9.5982,"RA_OF_ASC_NODE":317.4845,"ARG_OF_PERICENTER":319.8626,"MEAN_ANOMALY":220.2777,"EPHEMERIS_TYPE":0,"CLASSIFICATION_TYPE":"U","NORAD_CAT_ID":15946,"ELEMENT_SET_NO":999,"REV_AT_EPOCH":12116,"BSTAR":0,"MEAN_MOTION_DOT":7.0e-7,"MEAN_MOTION_DDOT":0},{"OBJECT_NAME":"OPTUS A1 (AUSSAT 1)","OBJECT_ID":"1985-076B","EPOCH":"2026-03-02T02:00:44.765280","MEAN_MOTION":0.9976836,"ECCENTRICITY":0.00044717,"INCLINATION":13.3832,"RA_OF_ASC_NODE":339.6158,"ARG_OF_PERICENTER":352.3021,"MEAN_ANOMALY":192.7186,"EPHEMERIS_TYPE":0,"CLASSIFICATION_TYPE":"U","NORAD_CAT_ID":15993,"ELEMENT_SET_NO":999,"REV_AT_EPOCH":11852,"BSTAR":0,"MEAN_MOTION_DOT":-2.69e-6,"MEAN_MOTION_DDOT":0},{"OBJECT_NAME":"ASC 1","OBJECT_ID":"1985-076C","EPOCH":"2026-03-04T02:55:38.762688","MEAN_MOTION":1.00310136,"ECCENTRICITY":0.0002203,"INCLINATION":13.869,"RA_OF_ASC_NODE":344.121,"ARG_OF_PERICENTER":19.4841,"MEAN_ANOMALY":86.1191,"EPHEMERIS_TYPE":0,"CLASSIFICATION_TYPE":"U","NORAD_CAT_ID":15994,"ELEMENT_SET_NO":999,"REV_AT_EPOCH":11692,"BSTAR":0,"MEAN_MOTION_DOT":-5.6e-7,"MEAN_MOTION_DDOT":0},{"OBJECT_NAME":"COSMOS 1700","OBJECT_ID":"1985-102A","EPOCH":"2026-03-03T18:23:26.208384","MEAN_MOTION":1.00312244,"ECCENTRICITY":0.00042576,"INCLINATION":9.8878,"RA_OF_ASC_NODE":319.5106,"ARG_OF_PERICENTER":259.7889,"MEAN_ANOMALY":284.4709,"EPHEMERIS_TYPE":0,"CLASSIFICATION_TYPE":"U","NORAD_CAT_ID":16199,"ELEMENT_SET_NO":999,"REV_AT_EPOCH":15061,"BSTAR":0,"MEAN_MOTION_DOT":-4.1e-7,"MEAN_MOTION_DDOT":0},{"OBJECT_NAME":"SL-12 R/B(2)","OBJECT_ID":"1985-102D","EPOCH":"2026-03-03T15:11:38.751360","MEAN_MOTION":1.00617432,"ECCENTRICITY":0.00186636,"INCLINATION":9.6262,"RA_OF_ASC_NODE":318.6704,"ARG_OF_PERICENTER":154.921,"MEAN_ANOMALY":99.3384,"EPHEMERIS_TYPE":0,"CLASSIFICATION_TYPE":"U","NORAD_CAT_ID":16214,"ELEMENT_SET_NO":999,"REV_AT_EPOCH":12378,"BSTAR":0,"MEAN_MOTION_DOT":8.1e-7,"MEAN_MOTION_DDOT":0},{"OBJECT_NAME":"RADUGA 17","OBJECT_ID":"1985-107A","EPOCH":"2026-03-03T17:03:25.235136","MEAN_MOTION":1.00166971,"ECCENTRICITY":0.00125439,"INCLINATION":9.785,"RA_OF_ASC_NODE":319.0155,"ARG_OF_PERICENTER":239.3658,"MEAN_ANOMALY":348.5011,"EPHEMERIS_TYPE":0,"CLASSIFICATION_TYPE":"U","NORAD_CAT_ID":16250,"ELEMENT_SET_NO":999,"REV_AT_EPOCH":15061,"BSTAR":0,"MEAN_MOTION_DOT":-3.69e-6,"MEAN_MOTION_DDOT":0},{"OBJECT_NAME":"OPTUS A2 (AUSSAT 2)","OBJECT_ID":"1985-109C","EPOCH":"2026-03-02T11:22:58.272384","MEAN_MOTION":0.99943762,"ECCENTRICITY":0.00063501,"INCLINATION":13.4453,"RA_OF_ASC_NODE":340.8999,"ARG_OF_PERICENTER":318.9289,"MEAN_ANOMALY":241.9667,"EPHEMERIS_TYPE":0,"CLASSIFICATION_TYPE":"U","NORAD_CAT_ID":16275,"ELEMENT_SET_NO":999,"REV_AT_EPOCH":4546,"BSTAR":0,"MEAN_MOTION_DOT":9.0e-7,"MEAN_MOTION_DDOT":0},{"OBJECT_NAME":"STTW-1","OBJECT_ID":"1986-010A","EPOCH":"2026-03-04T03:59:38.679360","MEAN_MOTION":1.00244459,"ECCENTRICITY":0.0003948,"INCLINATION":10.7659,"RA_OF_ASC_NODE":324.2264,"ARG_OF_PERICENTER":313.303,"MEAN_ANOMALY":44.2191,"EPHEMERIS_TYPE":0,"CLASSIFICATION_TYPE":"U","NORAD_CAT_ID":16526,"ELEMENT_SET_NO":999,"REV_AT_EPOCH":15440,"BSTAR":0,"MEAN_MOTION_DOT":-3.21e-6,"MEAN_MOTION_DDOT":0},{"OBJECT_NAME":"GSTAR 2","OBJECT_ID":"1986-026A","EPOCH":"2026-02-28T00:31:13.117440","MEAN_MOTION":0.99801836,"ECCENTRICITY":0.00034476,"INCLINATION":14.2559,"RA_OF_ASC_NODE":346.673,"ARG_OF_PERICENTER":12.6884,"MEAN_ANOMALY":170.3094,"EPHEMERIS_TYPE":0,"CLASSIFICATION_TYPE":"U","NORAD_CAT_ID":16649,"ELEMENT_SET_NO":999,"REV_AT_EPOCH":11555,"BSTAR":0,"MEAN_MOTION_DOT":-9.1e-7,"MEAN_MOTION_DDOT":0},{"OBJECT_NAME":"COSMOS 1738","OBJECT_ID":"1986-027A","EPOCH":"2026-03-03T22:36:47.508192","MEAN_MOTION":1.00259739,"ECCENTRICITY":0.0011574,"INCLINATION":10.4389,"RA_OF_ASC_NODE":318.5249,"ARG_OF_PERICENTER":135.5195,"MEAN_ANOMALY":42.5126,"EPHEMERIS_TYPE":0,"CLASSIFICATION_TYPE":"U","NORAD_CAT_ID":16667,"ELEMENT_SET_NO":999,"REV_AT_EPOCH":14629,"BSTAR":0,"MEAN_MOTION_DOT":-6.7e-7,"MEAN_MOTION_DDOT":0},{"OBJECT_NAME":"GORIZONT 12","OBJECT_ID":"1986-044A","EPOCH":"2026-03-03T17:23:38.768064","MEAN_MOTION":1.00344,"ECCENTRICITY":0.00053651,"INCLINATION":10.2175,"RA_OF_ASC_NODE":321.8008,"ARG_OF_PERICENTER":321.5943,"MEAN_ANOMALY":224.5362,"EPHEMERIS_TYPE":0,"CLASSIFICATION_TYPE":"U","NORAD_CAT_ID":16769,"ELEMENT_SET_NO":999,"REV_AT_EPOCH":14620,"BSTAR":0,"MEAN_MOTION_DOT":-2.29e-6,"MEAN_MOTION_DDOT":0}]
